[
    {
        "CCSDS_OMM_VERS": "3.0",
        "COMMENT": "GENERATED VIA SPACE-TRACK.ORG API",
        "CREATION_DATE": "2025-05-03T17:28:03",
        "ORIGINATOR": "18 SPCS",
        "OBJECT_NAME": "BEIDOU 3M4",
        "OBJECT_ID": "2018-003B",
        "CENTER_NAME": "EARTH",
        "REF_FRAME": "TEME",
        "TIME_SYSTEM": "UTC",
        "MEAN_ELEMENT_THEORY": "SGP4",
        "EPOCH": "2025-05-03T01:31:33.980736",
        "MEAN_MOTION": "1.86230940",
        "ECCENTRICITY": "0.00024040",
        "INCLINATION": "54.6804",
        "RA_OF_ASC_NODE": "316.5606",
        "ARG_OF_PERICENTER": "273.8771",
        "MEAN_ANOMALY": "86.0988",
        "EPHEMERIS_TYPE": "0",
        "CLASSIFICATION_TYPE": "U",
        "NORAD_CAT_ID": "43108",
        "ELEMENT_SET_NO": "999",
        "REV_AT_EPOCH": "4972",
        "BSTAR": "0.00000000000000",
        "MEAN_MOTION_DOT": "-0.00000069",
        "MEAN_MOTION_DDOT": "0.0000000000000",
        "SEMIMAJOR_AXIS": "27906.195",
        "PERIOD": "773.233",
        "APOAPSIS": "21534.768",
        "PERIAPSIS": "21521.351",
        "OBJECT_TYPE": "PAYLOAD",
        "RCS_SIZE": "LARGE",
        "COUNTRY_CODE": "PRC",
        "LAUNCH_DATE": "2018-01-11",
        "SITE": "XSC",
        "DECAY_DATE": null,
        "FILE": "4717971",
        "GP_ID": "286762424",
        "TLE_LINE0": "0 BEIDOU 3M4",
        "TLE_LINE1": "1 43108U 18003B   25123.06358774 -.00000069  00000-0  00000-0 0  9997",
        "TLE_LINE2": "2 43108  54.6804 316.5606 0002404 273.8771  86.0988  1.86230940 49721"
    }
]